{"type": "FeatureCollection", "features": [ {"type": "Feature", "properties": {"norad_id": 38817, "name": "FENGYUN 1C DEB", "group": "fengyun-1c-debris", "lat": -53.74555938601485, "lon": -137.613342940958, "alt_km": 1149.36203273124, "timestamp": "2025-12-05T04:52:15.581622+00:00", "meta": {"OBJECT_NAME": "FENGYUN 1C DEB", "OBJECT_ID": "1999-025EVH", "EPOCH": "2025-12-03T10:41:28.355712", "MEAN_MOTION": 13.57640916, "ECCENTRICITY": 0.02907998, "INCLINATION": 98.6006, "RA_OF_ASC_NODE": 208.9365, "ARG_OF_PERICENTER": 68.5289, "MEAN_ANOMALY": 294.6598, "EPHEMERIS_TYPE": 0, "CLASSIFICATION_TYPE": "U", "NORAD_CAT_ID": 38817, "ELEMENT_SET_NO": 999, "REV_AT_EPOCH": 65708, "BSTAR": 0.0025283462, "MEAN_MOTION_DOT": 2.357e-05, "MEAN_MOTION_DDOT": 0}, "tle": {"line1": "1 38817U 99025EVH 25337.44546708  .00002357  00000+0  25283-2 0  9998", "line2": "2 38817  98.6006 208.9365 0290799  68.5289 294.6598 13.57640916657086"}}, "geometry": {"type": "Point", "coordinates": [-137.613342940958, -53.74555938601485]}}, {"type": "Feature", "properties": {"norad_id": 38818, "name": "FENGYUN 1C DEB", "group": "fengyun-1c-debris", "lat": 6.19849833865966, "lon": -143.35483740359876, "alt_km": 723.1724439367299, "timestamp": "2025-12-05T04:52:15.581631+00:00", "meta": {"OBJECT_NAME": "FENGYUN 1C DEB", "OBJECT_ID": "1999-025EVJ", "EPOCH": "2025-11-27T09:30:24.153696", "MEAN_MOTION": 14.39418793, "ECCENTRICITY": 0.00885007, "INCLINATION": 98.3025, "RA_OF_ASC_NODE": 28.1739, "ARG_OF_PERICENTER": 145.1281, "MEAN_ANOMALY": 276.4662, "EPHEMERIS_TYPE": 0, "CLASSIFICATION_TYPE": "U", "NORAD_CAT_ID": 38818, "ELEMENT_SET_NO": 999, "REV_AT_EPOCH": 67027, "BSTAR": 0.00050962146, "MEAN_MOTION_DOT": 1.618e-05, "MEAN_MOTION_DDOT": 0}, "tle": {"line1": "1 38818U 99025EVJ 25331.39611289  .00001618  00000+0  50962-3 0  9996", "line2": "2 38818  98.3025  28.1739 0088500 145.1281 276.4662 14.39418793670274"}}, "geometry": {"type": "Point", "coordinates": [-143.35483740359876, 6.19849833865966]}}, {"type": "Feature", "properties": {"norad_id": 38819, "name": "FENGYUN 1C DEB", "group": "fengyun-1c-debris", "lat": -39.890743029292345, "lon": -20.497312637162743, "alt_km": 846.7110745456166, "timestamp": "2025-12-05T04:52:15.581641+00:00", "meta": {"OBJECT_NAME": "FENGYUN 1C DEB", "OBJECT_ID": "1999-025EVK", "EPOCH": "2025-12-04T05:27:10.386720", "MEAN_MOTION": 14.1934854, "ECCENTRICITY": 0.00794, "INCLINATION": 98.6177, "RA_OF_ASC_NODE": 331.2713, "ARG_OF_PERICENTER": 219.1984, "MEAN_ANOMALY": 156.6106, "EPHEMERIS_TYPE": 0, "CLASSIFICATION_TYPE": "U", "NORAD_CAT_ID": 38819, "ELEMENT_SET_NO": 999, "REV_AT_EPOCH": 63357, "BSTAR": 0.00075514, "MEAN_MOTION_DOT": 1.594e-05, "MEAN_MOTION_DDOT": 0}, "tle": {"line1": "1 38819U 99025EVK 25338.22720355  .00001594  00000+0  75514-3 0  9994", "line2": "2 38819  98.6177 331.2713 0079400 219.1984 156.6106 14.19348540633571"}}, "geometry": {"type": "Point", "coordinates": [-20.497312637162743, -39.890743029292345]}}, {"type": "Feature", "properties": {"norad_id": 38824, "name": "FENGYUN 1C DEB", "group": "fengyun-1c-debris", "lat": 50.655063318054104, "lon": -56.00338492462807, "alt_km": 845.1048673371779, "timestamp": "2025-12-05T04:52:15.581650+00:00", "meta": {"OBJECT_NAME": "FENGYUN 1C DEB", "OBJECT_ID": "1999-025EVQ", "EPOCH": "2025-11-20T14:24:21.461760", "MEAN_MOTION": 14.13875773, "ECCENTRICITY": 0.00960414, "INCLINATION": 99.2955, "RA_OF_ASC_NODE": 97.2934, "ARG_OF_PERICENTER": 263.2679, "MEAN_ANOMALY": 95.7556, "EPHEMERIS_TYPE": 0, "CLASSIFICATION_TYPE": "U", "NORAD_CAT_ID": 38824, "ELEMENT_SET_NO": 999, "REV_AT_EPOCH": 68824, "BSTAR": 0.0027703315, "MEAN_MOTION_DOT": 5.443e-05, "MEAN_MOTION_DDOT": 0}, "tle": {"line1": "1 38824U 99025EVQ 25324.60024840  .00005443  00000+0  27703-2 0  9996", "line2": "2 38824  99.2955  97.2934 0096041 263.2679  95.7556 14.13875773688246"}}, "geometry": {"type": "Point", "coordinates": [-56.00338492462807, 50.655063318054104]}}, {"type": "Feature", "properties": {"norad_id": 38827, "name": "FENGYUN 1C DEB", "group": "fengyun-1c-debris", "lat": -68.60668587049203, "lon": 160.2399072821573, "alt_km": 773.2815564802431, "timestamp": "2025-12-05T04:52:15.581659+00:00", "meta": {"OBJECT_NAME": "FENGYUN 1C DEB", "OBJECT_ID": "1999-025EVT", "EPOCH": "2025-12-02T06:58:24.042720", "MEAN_MOTION": 14.3273979, "ECCENTRICITY": 0.02171, "INCLINATION": 98.388, "RA_OF_ASC_NODE": 359.5433, "ARG_OF_PERICENTER": 344.0092, "MEAN_ANOMALY": 15.4311, "EPHEMERIS_TYPE": 0, "CLASSIFICATION_TYPE": "U", "NORAD_CAT_ID": 38827, "ELEMENT_SET_NO": 999, "REV_AT_EPOCH": 60910, "BSTAR": 0.0011390004, "MEAN_MOTION_DOT": 3.982e-05, "MEAN_MOTION_DDOT": 0}, "tle": {"line1": "1 38827U 99025EVT 25336.29055605  .00003982  00000+0  11390-2 0  9991", "line2": "2 38827  98.3880 359.5433 0217100 344.0092  15.4311 14.32739790609107"}}, "geometry": {"type": "Point", "coordinates": [160.2399072821573, -68.60668587049203]}}, {"type": "Feature", "properties": {"norad_id": 38829, "name": "FENGYUN 1C DEB", "group": "fengyun-1c-debris", "lat": 65.83214241004184, "lon": -164.5340510879805, "alt_km": 841.018745283226, "timestamp": "2025-12-05T04:52:15.581668+00:00", "meta": {"OBJECT_NAME": "FENGYUN 1C DEB", "OBJECT_ID": "1999-025EVV", "EPOCH": "2025-11-28T12:09:37.579680", "MEAN_MOTION": 14.09173473, "ECCENTRICITY": 0.00415826, "INCLINATION": 98.7503, "RA_OF_ASC_NODE": 348.8898, "ARG_OF_PERICENTER": 70.4663, "MEAN_ANOMALY": 290.0991, "EPHEMERIS_TYPE": 0, "CLASSIFICATION_TYPE": "U", "NORAD_CAT_ID": 38829, "ELEMENT_SET_NO": 999, "REV_AT_EPOCH": 63932, "BSTAR": 0.00056587384, "MEAN_MOTION_DOT": 9.49e-06, "MEAN_MOTION_DDOT": 0}, "tle": {"line1": "1 38829U 99025EVV 25332.50668495  .00000949  00000+0  56587-3 0  9998", "line2": "2 38829  98.7503 348.8898 0041582  70.4663 290.0991 14.09173473639320"}}, "geometry": {"type": "Point", "coordinates": [-164.5340510879805, 65.83214241004184]}}, {"type": "Feature", "properties": {"norad_id": 38832, "name": "FENGYUN 1C DEB", "group": "fengyun-1c-debris", "lat": -42.82297766650823, "lon": 32.12182248641278, "alt_km": 902.7982085031526, "timestamp": "2025-12-05T04:52:15.581677+00:00", "meta": {"OBJECT_NAME": "FENGYUN 1C DEB", "OBJECT_ID": "1999-025EVY", "EPOCH": "2025-12-02T22:21:52.125984", "MEAN_MOTION": 14.04442466, "ECCENTRICITY": 0.00846241, "INCLINATION": 99.2674, "RA_OF_ASC_NODE": 21.1018, "ARG_OF_PERICENTER": 70.1542, "MEAN_ANOMALY": 290.8721, "EPHEMERIS_TYPE": 0, "CLASSIFICATION_TYPE": "U", "NORAD_CAT_ID": 38832, "ELEMENT_SET_NO": 999, "REV_AT_EPOCH": 63620, "BSTAR": 0.0013226445, "MEAN_MOTION_DOT": 2.131e-05, "MEAN_MOTION_DDOT": 0}, "tle": {"line1": "1 38832U 99025EVY 25336.93185331  .00002131  00000+0  13226-2 0  9993", "line2": "2 38832  99.2674  21.1018 0084624  70.1542 290.8721 14.04442466636200"}}, "geometry": {"type": "Point", "coordinates": [32.12182248641278, -42.82297766650823]}}, {"type": "Feature", "properties": {"norad_id": 39536, "name": "FENGYUN 1C DEB", "group": "fengyun-1c-debris", "lat": -65.54945834737953, "lon": 176.70752920489795, "alt_km": 851.3815567917954, "timestamp": "2025-12-05T04:52:15.581686+00:00", "meta": {"OBJECT_NAME": "FENGYUN 1C DEB", "OBJECT_ID": "1999-025EWD", "EPOCH": "2025-11-07T21:44:34.572480", "MEAN_MOTION": 13.69653557, "ECCENTRICITY": 0.02407275, "INCLINATION": 99.7905, "RA_OF_ASC_NODE": 351.2614, "ARG_OF_PERICENTER": 346.3194, "MEAN_ANOMALY": 13.1503, "EPHEMERIS_TYPE": 0, "CLASSIFICATION_TYPE": "U", "NORAD_CAT_ID": 39536, "ELEMENT_SET_NO": 999, "REV_AT_EPOCH": 61287, "BSTAR": 0.0015441724, "MEAN_MOTION_DOT": 1.606e-05, "MEAN_MOTION_DDOT": 0}, "tle": {"line1": "1 39536U 99025EWD 25311.90595570  .00001606  00000+0  15442-2 0  9993", "line2": "2 39536  99.7905 351.2614 0240727 346.3194  13.1503 13.69653557612878"}}, "geometry": {"type": "Point", "coordinates": [176.70752920489795, -65.54945834737953]}}, {"type": "Feature", "properties": {"norad_id": 39537, "name": "FENGYUN 1C DEB", "group": "fengyun-1c-debris", "lat": -6.789354502319398, "lon": 126.23741099516016, "alt_km": 824.0451463352456, "timestamp": "2025-12-05T04:52:15.581696+00:00", "meta": {"OBJECT_NAME": "FENGYUN 1C DEB", "OBJECT_ID": "1999-025EWE", "EPOCH": "2025-11-24T15:36:49.218624", "MEAN_MOTION": 13.84100529, "ECCENTRICITY": 0.01777289, "INCLINATION": 99.1539, "RA_OF_ASC_NODE": 114.8537, "ARG_OF_PERICENTER": 29.7742, "MEAN_ANOMALY": 331.3386, "EPHEMERIS_TYPE": 0, "CLASSIFICATION_TYPE": "U", "NORAD_CAT_ID": 39537, "ELEMENT_SET_NO": 999, "REV_AT_EPOCH": 59006, "BSTAR": 0.0012783634, "MEAN_MOTION_DOT": 1.566e-05, "MEAN_MOTION_DDOT": 0}, "tle": {"line1": "1 39537U 99025EWE 25328.65056966  .00001566  00000+0  12784-2 0  9996", "line2": "2 39537  99.1539 114.8537 0177728  29.7742 331.3386 13.84100529590067"}}, "geometry": {"type": "Point", "coordinates": [126.23741099516016, -6.789354502319398]}}, {"type": "Feature", "properties": {"norad_id": 39541, "name": "FENGYUN 1C DEB", "group": "fengyun-1c-debris", "lat": 4.733861260325077, "lon": -157.823734014904, "alt_km": 817.6924602126828, "timestamp": "2025-12-05T04:52:15.581708+00:00", "meta": {"OBJECT_NAME": "FENGYUN 1C DEB", "OBJECT_ID": "1999-025EWJ", "EPOCH": "2025-11-26T08:43:14.269440", "MEAN_MOTION": 14.20329557, "ECCENTRICITY": 0.00721468, "INCLINATION": 98.6819, "RA_OF_ASC_NODE": 12.7746, "ARG_OF_PERICENTER": 119.8468, "MEAN_ANOMALY": 240.9905, "EPHEMERIS_TYPE": 0, "CLASSIFICATION_TYPE": "U", "NORAD_CAT_ID": 39541, "ELEMENT_SET_NO": 999, "REV_AT_EPOCH": 58770, "BSTAR": 0.00069059031, "MEAN_MOTION_DOT": 1.475e-05, "MEAN_MOTION_DDOT": 0}, "tle": {"line1": "1 39541U 99025EWJ 25330.36335960  .00001475  00000+0  69059-3 0  9993", "line2": "2 39541  98.6819  12.7746 0072146 119.8468 240.9905 14.20329557587703"}}, "geometry": {"type": "Point", "coordinates": [-157.823734014904, 4.733861260325077]}}]}